start=new Date('2023-03-16T00:00:00.000Z').valueOf();
sats=[{"TLE_LINE1":"1 51816U 22017BA  23074.64504308  .00002945  00000-0  20289-3 0  9993","EPHEMERIS_TYPE":"0","SITE":"AFWTR","PERIAPSIS":"538.587","RCS_SIZE":"LARGE","CENTER_NAME":"EARTH","MEAN_ELEMENT_THEORY":"SGP4","OBJECT_TYPE":"PAYLOAD","OBJECT_NAME":"STARLINK-3603","LAUNCH_DATE":"2022-02-25","APOAPSIS":"540.750","TLE_LINE2":"2 51816  53.2160 182.5165 0001563 103.0431 257.0736 15.08865201 59577","BSTAR":"0.00020289000000","MEAN_ANOMALY":"257.0736","MEAN_MOTION_DDOT":"0.0000000000000","COUNTRY_CODE":"US","REF_FRAME":"TEME","OBJECT_ID":"2022-017BA","MEAN_MOTION":"15.08865201","EPOCH":"2023-03-15T15:28:51.722112","INCLINATION":"53.2160","NORAD_CAT_ID":"51816","FILE":"3861599","GP_ID":"228209274","DECAY_DATE":null,"RA_OF_ASC_NODE":"182.5165","PERIOD":"95.436","TIME_SYSTEM":"UTC","ECCENTRICITY":"0.00015630","REV_AT_EPOCH":"5957","CLASSIFICATION_TYPE":"U","ELEMENT_SET_NO":"999","MEAN_MOTION_DOT":"0.00002945","ARG_OF_PERICENTER":"103.0431","SEMIMAJOR_AXIS":"6917.803"},{"MEAN_ELEMENT_THEORY":"SGP4","OBJECT_TYPE":"PAYLOAD","CENTER_NAME":"EARTH","RCS_SIZE":"LARGE","EPHEMERIS_TYPE":"0","SITE":"AFWTR","PERIAPSIS":"339.031","TLE_LINE1":"1 51817U 22017BB  23074.91146491  .00001991  00000-0  16150-4 0  9992","EPOCH":"2023-03-15T21:52:30.568224","MEAN_MOTION":"15.76741914","OBJECT_ID":"2022-017BB","COUNTRY_CODE":"US","REF_FRAME":"TEME","MEAN_MOTION_DDOT":"0.0000000000000","BSTAR":"0.00001615000000","MEAN_ANOMALY":"261.7763","TLE_LINE2":"2 51817  53.1884  34.0004 0000967  98.3368 261.7763 15.76741914 61726","OBJECT_NAME":"STARLINK-3596","LAUNCH_DATE":"2022-02-25","APOAPSIS":"340.331","PERIOD":"91.328","RA_OF_ASC_NODE":"34.0004","DECAY_DATE":null,"GP_ID":"228208023","INCLINATION":"53.1884","NORAD_CAT_ID":"51817","FILE":"3861599","ARG_OF_PERICENTER":"98.3368","SEMIMAJOR_AXIS":"6717.816","MEAN_MOTION_DOT":"0.00001991","ELEMENT_SET_NO":"999","CLASSIFICATION_TYPE":"U","REV_AT_EPOCH":"6172","TIME_SYSTEM":"UTC","ECCENTRICITY":"0.00009670"},{"EPOCH":"2023-03-15T20:56:06.625824","MEAN_MOTION":"15.08857017","OBJECT_ID":"2022-022A","COUNTRY_CODE":"US","REF_FRAME":"TEME","MEAN_MOTION_DDOT":"0.0000000000000","MEAN_ANOMALY":"270.7074","BSTAR":"0.00055227000000","TLE_LINE2":"2 51852  53.2142 231.4992 0001252  89.4062 270.7074 15.08857017 57235","APOAPSIS":"540.559","OBJECT_NAME":"STARLINK-3542","LAUNCH_DATE":"2022-03-03","OBJECT_TYPE":"PAYLOAD","MEAN_ELEMENT_THEORY":"SGP4","RCS_SIZE":"LARGE","CENTER_NAME":"EARTH","SITE":"AFETR","PERIAPSIS":"538.827","EPHEMERIS_TYPE":"0","TLE_LINE1":"1 51852U 22022A   23074.87229891  .00008516  00000-0  55227-3 0  9995","ARG_OF_PERICENTER":"89.4062","SEMIMAJOR_AXIS":"6917.828","MEAN_MOTION_DOT":"0.00008516","ELEMENT_SET_NO":"999","CLASSIFICATION_TYPE":"U","REV_AT_EPOCH":"5723","ECCENTRICITY":"0.00012520","TIME_SYSTEM":"UTC","PERIOD":"95.436","RA_OF_ASC_NODE":"231.4992","DECAY_DATE":null,"GP_ID":"228208528","NORAD_CAT_ID":"51852","FILE":"3861599","INCLINATION":"53.2142"},{"ELEMENT_SET_NO":"999","MEAN_MOTION_DOT":"0.00003938","ARG_OF_PERICENTER":"93.3413","SEMIMAJOR_AXIS":"6917.832","TIME_SYSTEM":"UTC","ECCENTRICITY":"0.00012090","REV_AT_EPOCH":"5843","CLASSIFICATION_TYPE":"U","DECAY_DATE":null,"RA_OF_ASC_NODE":"231.4854","PERIOD":"95.437","INCLINATION":"53.2148","FILE":"3861599","NORAD_CAT_ID":"51853","GP_ID":"228209278","COUNTRY_CODE":"US","REF_FRAME":"TEME","OBJECT_ID":"2022-022B","MEAN_MOTION":"15.08855886","EPOCH":"2023-03-15T21:02:47.240160","OBJECT_NAME":"STARLINK-3539","LAUNCH_DATE":"2022-03-03","APOAPSIS":"540.533","TLE_LINE2":"2 51853  53.2148 231.4854 0001209  93.3413 266.7717 15.08855886 58439","BSTAR":"0.00026524000000","MEAN_ANOMALY":"266.7717","MEAN_MOTION_DDOT":"0.0000000000000","EPHEMERIS_TYPE":"0","SITE":"AFETR","PERIAPSIS":"538.860","RCS_SIZE":"LARGE","CENTER_NAME":"EARTH","OBJECT_TYPE":"PAYLOAD","MEAN_ELEMENT_THEORY":"SGP4","TLE_LINE1":"1 51853U 22022B   23074.87693565  .00003938  00000-0  26524-3 0  9990"},{"ELEMENT_SET_NO":"999","MEAN_MOTION_DOT":"0.00004865","SEMIMAJOR_AXIS":"6917.844","ARG_OF_PERICENTER":"83.6892","TIME_SYSTEM":"UTC","ECCENTRICITY":"0.00018140","REV_AT_EPOCH":"5849","CLASSIFICATION_TYPE":"U","DECAY_DATE":null,"RA_OF_ASC_NODE":"231.5151","PERIOD":"95.437","INCLINATION":"53.2121","FILE":"3861599","NORAD_CAT_ID":"51854","GP_ID":"228208027","REF_FRAME":"TEME","COUNTRY_CODE":"US","MEAN_MOTION":"15.08851987","OBJECT_ID":"2022-022C","EPOCH":"2023-03-15T20:50:48.876864","LAUNCH_DATE":"2022-03-03","OBJECT_NAME":"STARLINK-3541","APOAPSIS":"540.964","TLE_LINE2":"2 51854  53.2121 231.5151 0001814  83.6892 276.4307 15.08851987 58494","BSTAR":"0.00032347000000","MEAN_ANOMALY":"276.4307","MEAN_MOTION_DDOT":"0.0000000000000","EPHEMERIS_TYPE":"0","PERIAPSIS":"538.454","SITE":"AFETR","RCS_SIZE":"LARGE","CENTER_NAME":"EARTH","MEAN_ELEMENT_THEORY":"SGP4","OBJECT_TYPE":"PAYLOAD","TLE_LINE1":"1 51854U 22022C   23074.86862126  .00004865  00000-0  32347-3 0  9991"},{"BSTAR":"0.00030498000000","MEAN_ANOMALY":"341.8099","MEAN_MOTION_DDOT":"0.0000000000000","LAUNCH_DATE":"2022-03-03","OBJECT_NAME":"STARLINK-3545","APOAPSIS":"543.034","TLE_LINE2":"2 51855  53.2131 231.5627 0004874  18.3068 341.8099 15.08867217 58446","EPOCH":"2023-03-15T20:40:11.218944","COUNTRY_CODE":"US","REF_FRAME":"TEME","OBJECT_ID":"2022-022D","MEAN_MOTION":"15.08867217","TLE_LINE1":"1 51855U 22022D   23074.86124096  .00004572  00000-0  30498-3 0  9999","RCS_SIZE":"LARGE","CENTER_NAME":"EARTH","MEAN_ELEMENT_THEORY":"SGP4","OBJECT_TYPE":"PAYLOAD","EPHEMERIS_TYPE":"0","SITE":"AFETR","PERIAPSIS":"536.290","REV_AT_EPOCH":"5844","CLASSIFICATION_TYPE":"U","TIME_SYSTEM":"UTC","ECCENTRICITY":"0.00048740","ARG_OF_PERICENTER":"18.3068","SEMIMAJOR_AXIS":"6917.797","ELEMENT_SET_NO":"999","MEAN_MOTION_DOT":"0.00004572","GP_ID":"228207778","INCLINATION":"53.2131","NORAD_CAT_ID":"51855","FILE":"3861599","RA_OF_ASC_NODE":"231.5627","PERIOD":"95.436","DECAY_DATE":null},{"REV_AT_EPOCH":"5852","CLASSIFICATION_TYPE":"U","TIME_SYSTEM":"UTC","ECCENTRICITY":"0.00012350","SEMIMAJOR_AXIS":"6917.851","ARG_OF_PERICENTER":"93.2200","ELEMENT_SET_NO":"999","MEAN_MOTION_DOT":"0.00003565","GP_ID":"228209028","INCLINATION":"53.2136","FILE":"3861599","NORAD_CAT_ID":"51856","RA_OF_ASC_NODE":"231.5311","PERIOD":"95.437","DECAY_DATE":null,"BSTAR":"0.00024192000000","MEAN_ANOMALY":"266.8933","MEAN_MOTION_DDOT":"0.0000000000000","LAUNCH_DATE":"2022-03-03","OBJECT_NAME":"STARLINK-3568","APOAPSIS":"540.570","TLE_LINE2":"2 51856  53.2136 231.5311 0001235  93.2200 266.8933 15.08849671 58526","EPOCH":"2023-03-15T20:45:31.158144","COUNTRY_CODE":"US","REF_FRAME":"TEME","OBJECT_ID":"2022-022E","MEAN_MOTION":"15.08849671","TLE_LINE1":"1 51856U 22022E   23074.86494396  .00003565  00000-0  24192-3 0  9998","RCS_SIZE":"LARGE","CENTER_NAME":"EARTH","MEAN_ELEMENT_THEORY":"SGP4","OBJECT_TYPE":"PAYLOAD","EPHEMERIS_TYPE":"0","SITE":"AFETR","PERIAPSIS":"538.861"},{"TLE_LINE1":"1 51857U 22022F   23074.85390339  .00010049  00000-0  64871-3 0  9993","RCS_SIZE":"LARGE","CENTER_NAME":"EARTH","OBJECT_TYPE":"PAYLOAD","MEAN_ELEMENT_THEORY":"SGP4","SITE":"AFETR","PERIAPSIS":"538.571","EPHEMERIS_TYPE":"0","MEAN_ANOMALY":"280.7021","BSTAR":"0.00064871000000","MEAN_MOTION_DDOT":"0.0000000000000","APOAPSIS":"540.963","LAUNCH_DATE":"2022-03-03","OBJECT_NAME":"STARLINK-3571","TLE_LINE2":"2 51857  53.2155 231.5825 0001729  79.4166 280.7021 15.08832923 58494","EPOCH":"2023-03-15T20:29:37.252896","REF_FRAME":"TEME","COUNTRY_CODE":"US","OBJECT_ID":"2022-022F","MEAN_MOTION":"15.08832923","GP_ID":"228208779","NORAD_CAT_ID":"51857","FILE":"3861599","INCLINATION":"53.2155","RA_OF_ASC_NODE":"231.5825","PERIOD":"95.438","DECAY_DATE":null,"REV_AT_EPOCH":"5849","CLASSIFICATION_TYPE":"U","ECCENTRICITY":"0.00017290","TIME_SYSTEM":"UTC","ARG_OF_PERICENTER":"79.4166","SEMIMAJOR_AXIS":"6917.902","ELEMENT_SET_NO":"999","MEAN_MOTION_DOT":"0.00010049"},{"NORAD_CAT_ID":"51858","FILE":"3861599","INCLINATION":"53.2140","GP_ID":"228207528","DECAY_DATE":null,"PERIOD":"95.436","RA_OF_ASC_NODE":"231.5662","ECCENTRICITY":"0.00011220","TIME_SYSTEM":"UTC","CLASSIFICATION_TYPE":"U","REV_AT_EPOCH":"5849","MEAN_MOTION_DOT":"0.00006236","ELEMENT_SET_NO":"999","SEMIMAJOR_AXIS":"6917.818","ARG_OF_PERICENTER":"71.8451","TLE_LINE1":"1 51858U 22022G   23074.85757818  .00006236  00000-0  40931-3 0  9997","PERIAPSIS":"538.907","SITE":"AFETR","EPHEMERIS_TYPE":"0","MEAN_ELEMENT_THEORY":"SGP4","OBJECT_TYPE":"PAYLOAD","RCS_SIZE":"LARGE","CENTER_NAME":"EARTH","TLE_LINE2":"2 51858  53.2140 231.5662 0001122  71.8451 288.2663 15.08860422 58498","APOAPSIS":"540.459","LAUNCH_DATE":"2022-03-03","OBJECT_NAME":"STARLINK-3563","MEAN_MOTION_DDOT":"0.0000000000000","MEAN_ANOMALY":"288.2663","BSTAR":"0.00040931000000","OBJECT_ID":"2022-022G","MEAN_MOTION":"15.08860422","REF_FRAME":"TEME","COUNTRY_CODE":"US","EPOCH":"2023-03-15T20:34:54.754752"},{"PERIOD":"95.436","RA_OF_ASC_NODE":"221.4980","DECAY_DATE":null,"GP_ID":"228208277","FILE":"3861599","NORAD_CAT_ID":"51859","INCLINATION":"53.2173","SEMIMAJOR_AXIS":"6917.808","ARG_OF_PERICENTER":"85.9647","MEAN_MOTION_DOT":"0.00004695","ELEMENT_SET_NO":"999","CLASSIFICATION_TYPE":"U","REV_AT_EPOCH":"5863","ECCENTRICITY":"0.00005650","TIME_SYSTEM":"UTC","MEAN_ELEMENT_THEORY":"SGP4","OBJECT_TYPE":"PAYLOAD","CENTER_NAME":"EARTH","RCS_SIZE":"LARGE","SITE":"AFETR","PERIAPSIS":"539.282","EPHEMERIS_TYPE":"0","TLE_LINE1":"1 51859U 22022H   23074.87321252  .00004695  00000-0  31268-3 0  9999","EPOCH":"2023-03-15T20:57:25.561728","MEAN_MOTION":"15.08863655","OBJECT_ID":"2022-022H","REF_FRAME":"TEME","COUNTRY_CODE":"US","MEAN_MOTION_DDOT":"0.0000000000000","MEAN_ANOMALY":"274.1410","BSTAR":"0.00031268000000","TLE_LINE2":"2 51859  53.2173 221.4980 0000565  85.9647 274.1410 15.08863655 58630","APOAPSIS":"540.064","LAUNCH_DATE":"2022-03-03","OBJECT_NAME":"STARLINK-3560"}];
